GLOBAL-34               
1 68098U 26043A   26068.47466435  .00014018  00000+0  45822-3 0  9994
2 68098  42.0215  76.7399 0006884 289.2632  70.7460 15.31488019   538
ELECTRON R/B            
1 68099U 26043B   26068.35411418  .02880891  76316-5  13809-2 0  9993
2 68099  42.0136  75.7261 0170437 290.6957  67.5707 15.95321187   530
ELECTRON KICK STAGE R/B 
1 68100U 26043C   26068.48069855  .03047399  81342-5  19440-2 0  9995
2 68100  42.1196  75.0711 0150670  47.4339 313.9128 15.96396295   541
